{
  "type": "FeatureCollection",
  "features": [
    {
      "type": "Feature",
      "properties": {
        "norad_id": 34540,
        "name": "IRIDIUM 33 DEB",
        "group": "iridium-33-debris",
        "lat": 79.5945512678108,
        "lon": 106.38206853587073,
        "alt_km": 629.9833077745097,
        "timestamp": "2025-12-14T03:55:53.172735+00:00",
        "meta_object_name": "IRIDIUM 33 DEB",
        "meta_object_id": "1997-051JH",
        "meta_epoch": "2025-12-12T16:27:37.491840",
        "meta_mean_motion": 14.75322014,
        "meta_eccentricity": 0.00164195,
        "meta_inclination": 86.3102,
        "meta_ra_of_asc_node": 307.6317,
        "meta_arg_of_pericenter": 159.2955,
        "meta_mean_anomaly": 15.9185,
        "meta_ephemeris_type": 0,
        "meta_classification_type": "U",
        "meta_norad_cat_id": 34540,
        "meta_element_set_no": 999,
        "meta_rev_at_epoch": 89020,
        "meta_bstar": 0.0023425707,
        "meta_mean_motion_dot": 0.0001595,
        "meta_mean_motion_ddot": 0,
        "tle_line1": "1 34540U 97051JH  25346.68585060  .00015950  00000+0  23426-2 0  9994",
        "tle_line2": "2 34540  86.3102 307.6317 0016419 159.2955  15.9185 14.75322014890209"
      },
      "geometry": {
        "type": "Point",
        "coordinates": [
          106.38206853587073,
          79.5945512678108
        ]
      }
    },
    {
      "type": "Feature",
      "properties": {
        "norad_id": 34648,
        "name": "IRIDIUM 33 DEB",
        "group": "iridium-33-debris",
        "lat": -79.88970053197336,
        "lon": -99.36188692838621,
        "alt_km": 733.6259613565553,
        "timestamp": "2025-12-14T03:55:53.172746+00:00",
        "meta_object_name": "IRIDIUM 33 DEB",
        "meta_object_id": "1997-051JZ",
        "meta_epoch": "2025-12-12T06:21:55.340640",
        "meta_mean_motion": 14.11481969,
        "meta_eccentricity": 0.01828059,
        "meta_inclination": 86.3902,
        "meta_ra_of_asc_node": 282.138,
        "meta_arg_of_pericenter": 300.3991,
        "meta_mean_anomaly": 57.9233,
        "meta_ephemeris_type": 0,
        "meta_classification_type": "U",
        "meta_norad_cat_id": 34648,
        "meta_element_set_no": 999,
        "meta_rev_at_epoch": 84954,
        "meta_bstar": 0.010984589,
        "meta_mean_motion_dot": 0.00023366,
        "meta_mean_motion_ddot": 0,
        "tle_line1": "1 34648U 97051JZ  25346.26522385  .00023366  00000+0  10985-1 0  9993",
        "tle_line2": "2 34648  86.3902 282.1380 0182805 300.3991  57.9233 14.11481969849541"
      },
      "geometry": {
        "type": "Point",
        "coordinates": [
          -99.36188692838621,
          -79.88970053197336
        ]
      }
    },
    {
      "type": "Feature",
      "properties": {
        "norad_id": 34651,
        "name": "IRIDIUM 33 DEB",
        "group": "iridium-33-debris",
        "lat": 49.86523196661723,
        "lon": 144.3937816584778,
        "alt_km": 888.5277086820115,
        "timestamp": "2025-12-14T03:55:53.172756+00:00",
        "meta_object_name": "IRIDIUM 33 DEB",
        "meta_object_id": "1997-051KC",
        "meta_epoch": "2025-12-13T04:06:39.786912",
        "meta_mean_motion": 14.25830516,
        "meta_eccentricity": 0.01420795,
        "meta_inclination": 86.283,
        "meta_ra_of_asc_node": 140.394,
        "meta_arg_of_pericenter": 202.5687,
        "meta_mean_anomaly": 156.9218,
        "meta_ephemeris_type": 0,
        "meta_classification_type": "U",
        "meta_norad_cat_id": 34651,
        "meta_element_set_no": 999,
        "meta_rev_at_epoch": 85902,
        "meta_bstar": 0.0047329688,
        "meta_mean_motion_dot": 0.00012543,
        "meta_mean_motion_ddot": 0,
        "tle_line1": "1 34651U 97051KC  25347.17129383  .00012543  00000+0  47330-2 0  9999",
        "tle_line2": "2 34651  86.2830 140.3940 0142079 202.5687 156.9218 14.25830516859023"
      },
      "geometry": {
        "type": "Point",
        "coordinates": [
          144.3937816584778,
          49.86523196661723
        ]
      }
    },
    {
      "type": "Feature",
      "properties": {
        "norad_id": 34652,
        "name": "IRIDIUM 33 DEB",
        "group": "iridium-33-debris",
        "lat": -72.21483327977202,
        "lon": -32.168961605624474,
        "alt_km": 675.6259421670593,
        "timestamp": "2025-12-14T03:55:53.172768+00:00",
        "meta_object_name": "IRIDIUM 33 DEB",
        "meta_object_id": "1997-051KD",
        "meta_epoch": "2025-12-11T23:57:08.973792",
        "meta_mean_motion": 14.62047586,
        "meta_eccentricity": 0.0025954,
        "meta_inclination": 86.3316,
        "meta_ra_of_asc_node": 340.3318,
        "meta_arg_of_pericenter": 300.945,
        "meta_mean_anomaly": 114.4446,
        "meta_ephemeris_type": 0,
        "meta_classification_type": "U",
        "meta_norad_cat_id": 34652,
        "meta_element_set_no": 999,
        "meta_rev_at_epoch": 88473,
        "meta_bstar": 0.0015132,
        "meta_mean_motion_dot": 7.652e-05,
        "meta_mean_motion_ddot": 0,
        "tle_line1": "1 34652U 97051KD  25345.99802053  .00007652  00000+0  15132-2 0  9990",
        "tle_line2": "2 34652  86.3316 340.3318 0025954 300.9450 114.4446 14.62047586884734"
      },
      "geometry": {
        "type": "Point",
        "coordinates": [
          -32.168961605624474,
          -72.21483327977202
        ]
      }
    },
    {
      "type": "Feature",
      "properties": {
        "norad_id": 34690,
        "name": "IRIDIUM 33 DEB",
        "group": "iridium-33-debris",
        "lat": 64.91000665277498,
        "lon": -151.40169009602164,
        "alt_km": 702.7658504313367,
        "timestamp": "2025-12-14T03:55:53.172779+00:00",
        "meta_object_name": "IRIDIUM 33 DEB",
        "meta_object_id": "1997-051KM",
        "meta_epoch": "2025-12-13T04:35:08.687328",
        "meta_mean_motion": 14.55098948,
        "meta_eccentricity": 0.00108146,
        "meta_inclination": 86.3784,
        "meta_ra_of_asc_node": 36.795,
        "meta_arg_of_pericenter": 28.1662,
        "meta_mean_anomaly": 34.2367,
        "meta_ephemeris_type": 0,
        "meta_classification_type": "U",
        "meta_norad_cat_id": 34690,
        "meta_element_set_no": 999,
        "meta_rev_at_epoch": 88101,
        "meta_bstar": 0.00067419119,
        "meta_mean_motion_dot": 2.931e-05,
        "meta_mean_motion_ddot": 0,
        "tle_line1": "1 34690U 97051KM  25347.19107277  .00002931  00000+0  67419-3 0  9993",
        "tle_line2": "2 34690  86.3784  36.7950 0010814  28.1662  34.2367 14.55098948881015"
      },
      "geometry": {
        "type": "Point",
        "coordinates": [
          -151.40169009602164,
          64.91000665277498
        ]
      }
    },
    {
      "type": "Feature",
      "properties": {
        "norad_id": 34693,
        "name": "IRIDIUM 33 DEB",
        "group": "iridium-33-debris",
        "lat": 2.928932123821555,
        "lon": 122.92859578650487,
        "alt_km": 489.34662555947307,
        "timestamp": "2025-12-14T03:55:53.172789+00:00",
        "meta_object_name": "IRIDIUM 33 DEB",
        "meta_object_id": "1997-051KQ",
        "meta_epoch": "2025-12-12T21:33:47.712960",
        "meta_mean_motion": 15.27980869,
        "meta_eccentricity": 0.00139664,
        "meta_inclination": 86.3056,
        "meta_ra_of_asc_node": 303.7467,
        "meta_arg_of_pericenter": 52.9772,
        "meta_mean_anomaly": 7.323,
        "meta_ephemeris_type": 0,
        "meta_classification_type": "U",
        "meta_norad_cat_id": 34693,
        "meta_element_set_no": 999,
        "meta_rev_at_epoch": 88917,
        "meta_bstar": 0.0063067576,
        "meta_mean_motion_dot": 0.00176337,
        "meta_mean_motion_ddot": 0,
        "tle_line1": "1 34693U 97051KQ  25346.89846890  .00176337  00000+0  63068-2 0  9990",
        "tle_line2": "2 34693  86.3056 303.7467 0013966  52.9772   7.3230 15.27980869889175"
      },
      "geometry": {
        "type": "Point",
        "coordinates": [
          122.92859578650487,
          2.928932123821555
        ]
      }
    },
    {
      "type": "Feature",
      "properties": {
        "norad_id": 34696,
        "name": "IRIDIUM 33 DEB",
        "group": "iridium-33-debris",
        "lat": -54.71201427001129,
        "lon": 21.45073261871719,
        "alt_km": 724.8761903654977,
        "timestamp": "2025-12-14T03:55:53.172799+00:00",
        "meta_object_name": "IRIDIUM 33 DEB",
        "meta_object_id": "1997-051KT",
        "meta_epoch": "2025-12-13T03:54:02.435616",
        "meta_mean_motion": 14.65143747,
        "meta_eccentricity": 0.00741248,
        "meta_inclination": 86.1855,
        "meta_ra_of_asc_node": 27.3258,
        "meta_arg_of_pericenter": 165.9902,
        "meta_mean_anomaly": 260.687,
        "meta_ephemeris_type": 0,
        "meta_classification_type": "U",
        "meta_norad_cat_id": 34696,
        "meta_element_set_no": 999,
        "meta_rev_at_epoch": 86679,
        "meta_bstar": 0.0067723801,
        "meta_mean_motion_dot": 0.00038084,
        "meta_mean_motion_ddot": 0,
        "tle_line1": "1 34696U 97051KT  25347.16252819  .00038084  00000+0  67724-2 0  9995",
        "tle_line2": "2 34696  86.1855  27.3258 0074124 165.9902 260.6870 14.65143747866797"
      },
      "geometry": {
        "type": "Point",
        "coordinates": [
          21.45073261871719,
          -54.71201427001129
        ]
      }
    }
  ]
}